[{"OBJECT_NAME":"ION SCV-011","OBJECT_ID":"2023-084AB","EPOCH":"2026-03-09T22:35:16.566144","MEAN_MOTION":15.27752464,"ECCENTRICITY":0.00079323,"INCLINATION":98.1356,"RA_OF_ASC_NODE":247.1056,"ARG_OF_PERICENTER":30.3898,"MEAN_ANOMALY":329.7798,"EPHEMERIS_TYPE":0,"CLASSIFICATION_TYPE":"U","NORAD_CAT_ID":56957,"ELEMENT_SET_NO":999,"REV_AT_EPOCH":15065,"BSTAR":0.0002590454,"MEAN_MOTION_DOT":6.943e-5,"MEAN_MOTION_DDOT":0},{"OBJECT_NAME":"STARLINK-35443","OBJECT_ID":"2025-253W","EPOCH":"2026-03-09T10:07:01.952832","MEAN_MOTION":15.27592799,"ECCENTRICITY":0.00017628,"INCLINATION":42.9973,"RA_OF_ASC_NODE":214.001,"ARG_OF_PERICENTER":280.0767,"MEAN_ANOMALY":79.9886,"EPHEMERIS_TYPE":0,"CLASSIFICATION_TYPE":"U","NORAD_CAT_ID":66339,"ELEMENT_SET_NO":999,"REV_AT_EPOCH":2020,"BSTAR":0.0014414418,"MEAN_MOTION_DOT":0.00039633,"MEAN_MOTION_DDOT":0}]
